NUSAT-1 (FRESCO)        
1 41557U 16033B   22289.35651138  .00025523  00000+0  68481-3 0  9996
2 41557  97.3899  27.4987 0009189 306.5803 138.0924 15.37902791355945
BEESAT-4                
1 41619U 16040W   22288.70880696  .00024847  00000+0  73956-3 0  9995
2 41619  97.2024 336.2814 0009585  54.2881 305.9253 15.34657085339140
CAS-2T & KS-1Q          
1 41847U 16066G   22288.80020353  .00001606  00000+0  25054-3 0  9997
2 41847  98.5383 353.2814 0362586 209.6622 148.3563 14.38793821311657
NAYIF-1 (EO-88)         
1 42017U 17008BX  22288.73119072  .00031770  00000+0  82618-3 0  9997
2 42017  97.2552 353.3103 0004907 160.5676 199.5757 15.38851143315545
ZHUHAI-1 02 (CAS-4B)    
1 42759U 17034B   22289.44698422  .00008238  00000+0  47219-3 0  9990
2 42759  43.0181  25.3969 0010850 329.0668 124.4930 15.12835326294675
ZHUHAI-1 01 (CAS-4A)    
1 42761U 17034D   22289.47751212  .00008308  00000+0  47487-3 0  9998
2 42761  43.0190  23.9290 0010882 330.4823 131.8901 15.12924945294680
MAX VALIER SAT          
1 42778U 17036P   22289.35656624  .00013543  00000+0  48241-3 0  9992
2 42778  97.1929 326.3619 0008548 252.0209 108.0100 15.29013513295367
RADFXSAT (FOX-1B)       
1 43017U 17073E   22288.63832038  .00005836  00000+0  43274-3 0  9992
2 43017  97.6566 177.8769 0246365 153.6369 207.7630 14.82274082264915
FOX-1D (AO-92)          
1 43137U 18004AC  22289.18747274  .00016866  00000+0  55017-3 0  9991
2 43137  97.3581   3.3633 0006015 297.2326  62.8302 15.31845501264808
DIWATA-2B               
1 43678U 18084H   22289.48128184  .00002363  00000+0  23651-3 0  9991
2 43678  97.9885  64.3019 0008615 242.8876 117.1463 14.92396429215905
ES'HAIL 2               
1 43700U 18090A   22289.26133566  .00000144  00000+0  00000+0 0  9994
2 43700   0.0188 125.6147 0002839 115.3034 263.7373  1.00274418 14483
FOX-1CLIFF (AO-95)      
1 43770U 18099N   22288.86423838  .00005019  00000+0  44002-3 0  9999
2 43770  97.6081 352.0479 0012691 226.2904 133.7267 14.97026668211022
ITASAT 1                
1 43786U 18099AE  22289.45002739  .00003521  00000+0  30962-3 0  9991
2 43786  97.6099 353.5985 0014026 217.9571 142.0664 14.97091190211157
JY1SAT (JO-97)          
1 43803U 18099AX  22288.75519843  .00003992  00000+0  34480-3 0  9993
2 43803  97.6073 352.7200 0013412 219.9056 140.1182 14.97724202211070
UWE-4                   
1 43880U 18111E   22288.73403864  .00005093  00000+0  42637-3 0  9993
2 43880  97.6547 192.9179 0010524 275.5370  84.4653 14.98846135207718
NEXUS (FO-99)           
1 43937U 19003F   22289.07185492  .00020865  00000+0  63579-3 0  9991
2 43937  97.1206 317.8795 0021009  83.4323 276.9312 15.33769165208442
PSAT2 (NO-104)          
1 44354U 19036R   22289.47053134  .00094384 -45118-5  61102-3 0  9995
2 44354  28.5242  51.0992 0174389 268.8526  89.2094 15.56355202183424
JAISAT-1                
1 44419U 19038F   22288.85739331  .00015488  00000+0  73150-3 0  9998
2 44419  97.6508 260.1809 0020823  77.3275 283.0286 15.19326138181324
DUCHIFAT-3              
1 44854U 19089C   22289.48094836  .00007466  00000+0  56491-3 0  9997
2 44854  36.9660 102.4564 0006253 122.9635 263.4900 15.01947372156132
CAS-6 (TIANQIN 1)       
1 44881U 19093C   22289.31726973  .00001273  00000+0  16732-3 0  9992
2 44881  97.8854   6.7518 0015666 148.5591 211.6562 14.81873235152678
RS-44 & BREEZE-KM R/B   
1 44909U 19096E   22288.74826910  .00000014  00000+0  65670-5 0  9993
2 44909  82.5207 150.3790 0218129  38.6677 322.9815 12.79715900130899
ORBITAL FACTORY 2 (OF-2)
1 45113U 19071C   22289.12747907  .00056290  00000+0  89271-3 0  9993
2 45113  51.6352 182.9822 0008284 237.8744 122.1443 15.52790808152074
HUSKYSAT-1 (HO-107)     
1 45119U 19071J   22289.10602358  .00045341  00000+0  77390-3 0  9991
2 45119  51.6348 184.3049 0008268 236.1842 123.8361 15.50830403152043
BY70-2                  
1 45857U 20042B   22289.34097114  .00014624  00000+0  18710-2 0  9994
2 45857  97.9493   5.0961 0011301  85.7597 274.4856 14.81405858123343
SALSAT                  
1 46495U 20068K   22288.79132702  .00004928  00000+0  35022-3 0  9994
2 46495  97.7389 230.2146 0015241 226.0361 133.9609 15.05072915112284
BY70-3                  
1 46839U 20079N   22289.47657174  .00051316  00000+0  97540-3 0  9995
2 46839  97.1860   0.3249 0004254 242.0464 238.8202 15.48089399108929
RADFXSAT-2 (AO-109)     
1 47311U 21002C   22289.34488793  .00016257  00000+0  59992-3 0  9997
2 47311  60.6842 266.5602 0036167  54.3751 306.0697 15.27367051 96923
UVSQ-SAT                
1 47438U 21006AB  22288.71603877  .00010846  00000+0  54917-3 0  9993
2 47438  97.4229 345.2684 0010770 210.6547 149.4058 15.17123127 95503
DIY-1 (ARDUIQUBE)       
1 47963U 21022AH  22289.20550113  .00032170  00000+0  15926-2 0  9993
2 47963  97.5166 189.3627 0018438  77.6534 282.6762 15.17569522 85231
XW-3 (CAS-9)            
1 50466U 21131B   22289.47784598  .00000420  00000+0  15174-3 0  9990
2 50466  98.5728   6.6296 0005469 140.7341 219.4244 14.38549922 42318
TEVEL-3                 
1 50988U 22002E   22289.49659186  .00013724  00000+0  71417-3 0  9996
2 50988  97.4689 354.4953 0009128  12.7732 112.5358 15.16115030 41744
TEVEL-8                 
1 50989U 22002F   22289.43964094  .00013815  00000+0  71995-3 0  9990
2 50989  97.4714 354.4704 0009402  12.8005 111.0590 15.16059811 41732
TEVEL-5                 
1 50998U 22002Q   22289.41307605  .00013895  00000+0  71228-3 0  9994
2 50998  97.4681 354.5794 0010635   7.2968 123.0356 15.16630481 41743
TEVEL-6                 
1 50999U 22002R   22289.47761310  .00013840  00000+0  70938-3 0  9995
2 50999  97.4689 354.6402 0010465   7.3458 119.0553 15.16637096 41759
TEVEL-1                 
1 51013U 22002AF  22289.50077331  .00013762  00000+0  71669-3 0  9995
2 51013  97.4688 354.4709 0009161  12.1933 112.6560 15.16087112 41741
TEVEL-7                 
1 51062U 22002CG  22289.44158344  .00013857  00000+0  72229-3 0  9994
2 51062  97.4704 354.4561 0009203  12.4818 111.3206 15.16055064 41735
TEVEL-4                 
1 51063U 22002CH  22289.44328756  .00013829  00000+0  72109-3 0  9997
2 51063  97.4710 354.4533 0009302  12.3452 114.0728 15.16041808 41735
TEVEL-2                 
1 51069U 22002CP  22289.28982789  .00013889  00000+0  72290-3 0  9994
2 51069  97.4687 354.2761 0009182  13.5297  55.3889 15.16104313 41715
GREENCUBE               
1 53106U 22080B   22276.55284936 -.00000003  00000+0  00000+0 0  9990
2 53106  70.1655  48.8724 0008696 239.2659 120.7144  6.42557820  5260
YUZGU 9 (RS3S)          
1 53308U 98067TT  22289.46283482  .00090656  00000+0  11447-2 0  9993
2 53308  51.6383  93.6039 0004647 298.8280  61.2246 15.58789970 13560
YUZGU 7 (RS1S)          
1 53309U 98067TU  22289.45636320  .00092652  00000+0  11542-2 0  9990
2 53309  51.6376  93.5572 0004625 307.6970  52.3603 15.59137649 13519
YUZGU 11 (RS5S)         
1 53310U 98067TV  22289.46219315  .00090701  00000+0  11436-2 0  9999
2 53310  51.6382  93.6003 0004282 307.1985  52.8617 15.58830026 13549
YUZGU 12 (RS6S)         
1 53311U 98067TW  22289.44755471  .00090861  00000+0  11182-2 0  9991
2 53311  51.6376  93.4974 0005041 294.1791  65.8675 15.59464857 13568
TSIOLKOVSKY-RYAZAN 1 (*)
1 53312U 98067TX  22289.45453114  .00094598  00000+0  11784-2 0  9991
2 53312  51.6385  93.5480 0004604 311.6153  48.4445 15.59129292 13500
TSIOLKOVSKY-RYAZAN 2 (*)
1 53313U 98067TY  22289.45236295  .00091207  00000+0  11374-2 0  9990
2 53313  51.6384  93.5337 0004137 308.4067  51.6554 15.59118792 13555
YUZGU 10 (RS4S)         
1 53321U 98067TZ  22289.46107360  .00091996  00000+0  11531-2 0  9990
2 53321  51.6381  93.5923 0004603 303.1267  56.9283 15.58978170 13554
RS29S (SXC3-2110 CYCLO*)
1 53373U 22096D   22289.50007558  .00018284  00000+0  71556-3 0  9992
2 53373  97.4287 190.4738 0001588  46.9745  57.6038 15.25871983 10390
RS32S (SXC3-212 MONITO*)
1 53374U 22096E   22289.49579758  .00018369  00000+0  71641-3 0  9996
2 53374  97.4281 190.4798 0001145  48.2517  60.0060 15.25987727 10399
RS34S (SXC3-218 KUZBAS*)
1 53375U 22096F   22289.49817451  .00014870  00000+0  58439-3 0  9995
2 53375  97.4289 190.4780 0000995  45.5751  63.2043 15.25778739 10398
RS23S (SXC3-21 UTMN)    
1 53376U 22096G   22289.49284041  .00014716  00000+0  57771-3 0  9996
2 53376  97.4285 190.4763 0001055  43.6265  43.3400 15.25816624 10395
RS28S (SXC3-214 MIET-A*)
1 53377U 22096H   22289.50710888  .00014926  00000+0  58565-3 0  9997
2 53377  97.4286 190.4928 0000939  40.4467 131.7331 15.25830932 10392
RS26S (KAI-1)           
1 53378U 22096J   22289.49532981  .00013049  00000+0  51395-3 0  9991
2 53378  97.4285 190.4802 0000632  54.1736  51.5736 15.25736442 10393
RS19S (SXC3-219 ISOI)   
1 53381U 22096M   22289.47476122  .00015519  00000+0  60016-3 0  9991
2 53381  97.4283 190.5060 0003414 180.1626 283.8959 15.26301119 10398
RS21S (CUBESX-HSE-2)    
1 53383U 22096P   22289.41207887  .00015933  00000+0  61564-3 0  9996
2 53383  97.4292 190.4489 0003676 181.4310 310.0794 15.26323199 10389
RS30S (SXC3-217 SIREN)  
1 53384U 22096Q   22289.41158392  .00014469  00000+0  56013-3 0  9999
2 53384  97.4290 190.4489 0003638 181.4486 307.9160 15.26283973 10387
RS20S (GEOSCAN-EDELVEIS)
1 53385U 22096R   22289.39644550  .00019290  00000+0  73402-3 0  9991
2 53385  97.4288 190.4616 0003985 181.7782 289.5979 15.26790489 10416
RS33S (SXC3-215 VIZARD) 
1 53386U 22096S   22289.51208869  .00023059  00000+0  86281-3 0  9992
2 53386  97.4282 190.6088 0004434 185.1503 278.7425 15.27309531 10427
